ONEWEB-0461             
1 51649U 22012AD  24359.39885331  .00000066  00000+0  13630-3 0  9992
2 51649  87.9099 113.3925 0001650 102.0907 258.0410 13.17647996144095
ONEWEB-0463             
1 51650U 22012AE  24358.39312938  .00000137  00000+0  32061-3 0  9999
2 51650  87.9104 113.6479 0001667 101.0777 259.0542 13.17648510142451
ONEWEB-0464             
1 51651U 22012AF  24359.41447443  .00000286  00000+0  78336-3 0  9994
2 51651  87.8901 143.7967 0001091 102.9632 257.1617 13.10369299139931
ONEWEB-0468             
1 51652U 22012AG  24359.42110763 -.00000016  00000+0 -83136-4 0  9996
2 51652  87.8902 143.7875 0001396  97.2592 262.8694 13.10368948139905
ONEWEB-0473             
1 51653U 22012AH  24358.48989333  .00000447  00000+0  12429-2 0  9990
2 51653  87.8901 143.9751 0001384  92.6462 267.4824 13.10369162138490
ONEWEB-0474             
1 51654U 22012AJ  24358.48159834  .00000706  00000+0  19874-2 0  9995
2 51654  87.8893 143.9563 0001224  90.8346 269.2921 13.10371649138486
ONEWEB-0475             
1 51655U 22012AK  24359.31617760  .00000155  00000+0  36676-3 0  9994
2 51655  87.9105 113.4438 0001261  71.6188 288.5081 13.17648759143886
ONEWEB-0490             
1 54113U 22138A   24359.54645697  .00000049  00000+0  90548-4 0  9991
2 54113  87.9166  52.2580 0001686 101.0778 259.0544 13.19724026106528
